NORAD_CAT_ID,OBJECT_NAME,OBJECT_TYPE,EPOCH,MEAN_MOTION,ECCENTRICITY,INCLINATION,RA_OF_ASC_NODE,ARG_OF_PERICENTER,MEAN_ANOMALY,BSTAR,MEAN_MOTION_DOT,MEAN_MOTION_DDOT,TLE_LINE0,TLE_LINE1,TLE_LINE2,SEMIMAJOR_AXIS,PERIOD,APOGEE,PERIGEE,DECAYED
55920.0,STARLINK-5862,PAYLOAD,2024-01-04 13:36:41,14.98328147,0.0002795,70.0003,129.4413,261.8665,98.2177,-7.2588e-06,-1.8e-06,0.0,0 STARLINK-5862,1 55920U 23037G   24004.56714651 -.00000180  00000-0 -72588-5 0  9997,2 55920  70.0003 129.4413 0002795 261.8665  98.2177 14.98328147 44878,6950.199,96.107,574.006,570.121,0.0
55920.0,STARLINK-5862,PAYLOAD,2024-01-04 18:25:05,14.98332119,0.0002925,69.9999,128.9356,267.6471,92.4354,5.1812e-05,5.25e-06,0.0,0 STARLINK-5862,1 55920U 23037G   24004.76742271  .00000525  00000-0  51812-4 0  9995,2 55920  69.9999 128.9356 0002925 267.6471  92.4354 14.98332119 45242,6950.186,96.107,574.084,570.018,0.0
55920.0,STARLINK-5862,PAYLOAD,2024-01-05 13:38:42,14.98325367,0.0002622,70.0004,126.9161,263.4807,96.6053,1.7814e-05,1.2e-06,0.0,0 STARLINK-5862,1 55920U 23037G   24005.56854786  .00000120  00000-0  17814-4 0  9994,2 55920  70.0004 126.9161 0002622 263.4807  96.6053 14.98325367 45367,6950.207,96.107,573.895,570.25,0.0
55920.0,STARLINK-5862,PAYLOAD,2024-01-05 18:27:06,14.98325538,0.0002785,70.0004,126.4117,267.8043,92.2797,2.9692e-05,2.61e-06,0.0,0 STARLINK-5862,1 55920U 23037G   24005.76882811  .00000261  00000-0  29692-4 0  9999,2 55920  70.0004 126.4117 0002785 267.8043  92.2797 14.98325538 45056,6950.207,96.107,574.007,570.136,0.0
55920.0,STARLINK-5862,PAYLOAD,2024-01-06 12:04:35,14.98338454,0.000288,70.0001,124.5603,268.3196,91.7633,-0.00018696,-2.323e-05,0.0,0 STARLINK-5862,1 55920U 23037G   24006.50318591 -.00002323  00000-0 -18696-3 0  9995,2 55920  70.0001 124.5603 0002880 268.3196  91.7633 14.98338454 45169,6950.167,96.106,574.033,570.03,0.0
55920.0,STARLINK-5862,PAYLOAD,2024-01-06 16:52:59,14.98329424,0.0002824,70.0004,124.0553,266.3687,93.7149,1.8298e-05,1.25e-06,0.0,0 STARLINK-5862,1 55920U 23037G   24006.70346574  .00000125  00000-0  18298-4 0  9994,2 55920  70.0004 124.0553 0002824 266.3687  93.7149 14.98329424 45534,6950.195,96.107,574.022,570.097,0.0
55920.0,STARLINK-5862,PAYLOAD,2024-01-07 13:42:44,14.98329318,0.0002943,70.0002,121.8673,267.0735,93.0088,4.0351e-05,3.88e-06,0.0,0 STARLINK-5862,1 55920U 23037G   24007.57134414  .00000388  00000-0  40351-4 0  9994,2 55920  70.0002 121.8673 0002943 267.0735  93.0088 14.98329318 45328,6950.195,96.107,574.105,570.015,0.0
55920.0,STARLINK-5862,PAYLOAD,2024-01-07 16:55:00,14.98330072,0.0002916,70.0003,121.5308,266.5996,93.483,5.5478e-05,5.69e-06,0.0,0 STARLINK-5862,1 55920U 23037G   24007.70486321  .00000569  00000-0  55478-4 0  9993,2 55920  70.0003 121.5308 0002916 266.5996  93.4830 14.98330072 45681,6950.193,96.107,574.084,570.031,0.0
55920.0,STARLINK-5862,PAYLOAD,2024-01-08 12:08:37,14.98316574,0.0002652,70.0002,119.5108,252.9316,107.1552,-0.00018997,-2.358e-05,0.0,0 STARLINK-5862,1 55920U 23037G   24008.50598550 -.00002358  00000-0 -18997-3 0  9994,2 55920  70.0002 119.5108 0002652 252.9316 107.1552 14.98316574 45806,6950.234,96.108,573.943,570.256,0.0
55920.0,STARLINK-5862,PAYLOAD,2024-01-08 13:44:45,14.98317024,0.0002666,70.0003,119.3426,260.3058,99.78,-0.00018333,-2.279e-05,0.0,0 STARLINK-5862,1 55920U 23037G   24008.57274487 -.00002279  00000-0 -18333-3 0  9997,2 55920  70.0003 119.3426 0002666 260.3058  99.7800 14.98317024 45475,6950.233,96.108,573.951,570.245,0.0
55920.0,STARLINK-5862,PAYLOAD,2024-01-08 16:57:00,14.98323045,0.0002702,70.0003,119.0059,265.3097,94.7754,-0.00010917,-1.395e-05,0.0,0 STARLINK-5862,1 55920U 23037G   24008.70626071 -.00001395  00000-0 -10917-3 0  9990,2 55920  70.0003 119.0059 0002702 265.3097  94.7754 14.98323045 45836,6950.214,96.107,573.957,570.201,0.0
55920.0,STARLINK-5862,PAYLOAD,2024-01-09 13:46:45,14.98324327,0.0002631,70.0004,116.8176,260.968,99.1181,-0.0001032,-1.324e-05,0.0,0 STARLINK-5862,1 55920U 23037G   24009.57413952 -.00001324  00000-0 -10320-3 0  9998,2 55920  70.0004 116.8176 0002631 260.9680  99.1181 14.98324327 45626,6950.21,96.107,573.904,570.247,0.0
55920.0,STARLINK-5862,PAYLOAD,2024-01-09 16:59:01,14.98326346,0.000263,70.0006,116.4817,260.6726,99.4136,-7.5704e-05,-9.96e-06,0.0,0 STARLINK-5862,1 55920U 23037G   24009.70765870 -.00000996  00000-0 -75704-4 0  9994,2 55920  70.0006 116.4817 0002630 260.6726  99.4136 14.98326346 45988,6950.204,96.107,573.897,570.241,0.0
55920.0,STARLINK-5862,PAYLOAD,2024-01-10 10:36:30,14.98360269,0.0002896,70.0006,114.6298,263.0804,97.0026,-0.00069908,-8.431e-05,0.0,0 STARLINK-5862,1 55920U 23037G   24010.44201477 -.00008431  00000-0 -69908-3 0  9995,2 55920  70.0006 114.6298 0002896 263.0804  97.0026 14.98360269 46096,6950.099,96.105,573.977,569.952,0.0
55920.0,STARLINK-5862,PAYLOAD,2024-01-11 12:14:39,14.98350613,0.0002265,70.0005,111.9364,248.5863,111.5055,-0.00048681,-5.899e-05,0.0,0 STARLINK-5862,1 55920U 23037G   24011.51017853 -.00005899  00000-0 -48681-3 0  9997,2 55920  70.0005 111.9364 0002265 248.5863 111.5055 14.98350613 46256,6950.129,96.106,573.568,570.42,0.0
55920.0,STARLINK-5862,PAYLOAD,2024-01-11 13:50:47,14.98321546,0.0002618,70.0003,111.7677,261.229,98.8573,6.6029e-05,6.95e-06,0.0,0 STARLINK-5862,1 55920U 23037G   24011.57694138  .00000695  00000-0  66029-4 0  9994,2 55920  70.0003 111.7677 0002618 261.2290  98.8573 14.98321546 45925,6950.219,96.108,573.904,570.264,0.0
55920.0,STARLINK-5862,PAYLOAD,2024-01-11 15:26:55,14.98322532,0.0002567,70.0004,111.5994,261.326,98.7608,7.9322e-05,8.53e-06,0.0,0 STARLINK-5862,1 55920U 23037G   24011.64370079  .00000853  00000-0  79322-4 0  9993,2 55920  70.0004 111.5994 0002567 261.3260  98.7608 14.98322532 46270,6950.216,96.107,573.865,570.297,0.0
55920.0,STARLINK-5862,PAYLOAD,2024-01-12 13:52:49,14.98321163,0.0002684,70.0002,109.2437,260.9126,99.1729,1.7665e-05,1.18e-06,0.0,0 STARLINK-5862,1 55920U 23037G   24012.57834862  .00000118  00000-0  17665-4 0  9997,2 55920  70.0002 109.2437 0002684 260.9126  99.1729 14.98321163 46076,6950.22,96.108,573.951,570.22,0.0
55920.0,STARLINK-5862,PAYLOAD,2024-01-12 15:28:57,14.9832025,0.000251,70.0007,109.0761,248.337,111.7522,2.6908e-05,2.28e-06,0.0,0 STARLINK-5862,1 55920U 23037G   24012.64510923  .00000228  00000-0  26908-4 0  9996,2 55920  70.0007 109.0761 0002510 248.3370 111.7522 14.98320250 46425,6950.223,96.108,573.833,570.344,0.0
55920.0,STARLINK-5862,PAYLOAD,2024-01-13 13:54:48,14.98354611,0.0002561,70.0004,106.7187,267.4591,92.6274,-5.2538e-05,-7.2e-06,0.0,0 STARLINK-5862,1 55920U 23037G   24013.57973001 -.00000720  00000-0 -52538-4 0  9996,2 55920  70.0004 106.7187 0002561 267.4591  92.6274 14.98354611 46228,6950.117,96.105,573.762,570.202,0.0
55920.0,STARLINK-5862,PAYLOAD,2024-01-13 15:30:57,14.98339197,0.0002681,70.0001,106.5492,276.7731,83.3123,0.00015641,1.774e-05,0.0,0 STARLINK-5862,1 55920U 23037G   24013.64649455  .00001774  00000-0  15641-3 0  9998,2 55920  70.0001 106.5492 0002681 276.7731  83.3123 14.98339197 46574,6950.164,96.106,573.893,570.166,0.0
55920.0,STARLINK-5862,PAYLOAD,2024-01-14 12:20:42,14.98324422,0.0002448,70.0012,104.3638,244.4647,115.6259,3.2994e-05,3.01e-06,0.0,0 STARLINK-5862,1 55920U 23037G   24014.51438584  .00000301  00000-0  32994-4 0  9990,2 55920  70.0012 104.3638 0002448 244.4647 115.6259 14.98324422 46702,6950.21,96.107,573.777,570.374,0.0
55920.0,STARLINK-5862,PAYLOAD,2024-01-14 13:56:50,14.98326605,0.0002472,70.0012,104.1954,240.5198,119.5715,7.7881e-05,8.36e-06,0.0,0 STARLINK-5862,1 55920U 23037G   24014.58114290  .00000836  00000-0  77881-4 0  9999,2 55920  70.0012 104.1954 0002472 240.5198 119.5715 14.98326605 46374,6950.203,96.107,573.786,570.35,0.0
55920.0,STARLINK-5862,PAYLOAD,2024-01-14 15:32:58,14.98333379,0.0002805,69.9997,104.0239,266.9618,93.122,0.00015988,1.815e-05,0.0,0 STARLINK-5862,1 55920U 23037G   24014.64789615  .00001815  00000-0  15988-3 0  9992,2 55920  69.9997 104.0239 0002805 266.9618  93.1220 14.98333379 46720,6950.182,96.107,573.997,570.098,0.0
55920.0,STARLINK-5862,PAYLOAD,2024-01-15 13:58:50,14.98339415,0.0002655,70.0001,101.6686,262.4744,97.6114,6.2916e-06,-1.8e-07,0.0,0 STARLINK-5862,1 55920U 23037G   24015.58253283 -.00000018  00000-0  62916-5 0  9993,2 55920  70.0001 101.6686 0002655 262.4744  97.6114 14.98339415 46528,6950.164,96.106,573.874,570.184,0.0
55920.0,STARLINK-5862,PAYLOAD,2024-01-15 15:34:58,14.98341102,0.0002743,70.0001,101.5012,265.1525,94.9321,1.6016e-05,9.8e-07,0.0,0 STARLINK-5862,1 55920U 23037G   24015.64929126  .00000098  00000-0  16016-4 0  9992,2 55920  70.0001 101.5012 0002743 265.1525  94.9321 14.98341102 46879,6950.159,96.106,573.93,570.117,0.0
55920.0,STARLINK-5862,PAYLOAD,2024-01-16 12:24:44,14.98324913,0.0002956,69.9999,99.3111,268.3702,91.7119,-0.00010058,-1.293e-05,0.0,0 STARLINK-5862,1 55920U 23037G   24016.51718529 -.00001293  00000-0 -10058-3 0  9991,2 55920  69.9999  99.3111 0002956 268.3702  91.7119 14.98324913 47001,6950.209,96.107,574.128,570.019,0.0
55920.0,STARLINK-5862,PAYLOAD,2024-01-16 14:00:52,14.98327546,0.0002893,69.9998,99.1424,268.8599,91.2228,-6.6947e-05,-8.92e-06,0.0,0 STARLINK-5862,1 55920U 23037G   24016.58394291 -.00000892  00000-0 -66947-4 0  9997,2 55920  69.9998  99.1424 0002893 268.8599  91.2228 14.98327546 46677,6950.2,96.107,574.076,570.055,0.0
55920.0,STARLINK-5862,PAYLOAD,2024-01-16 15:37:00,14.98329492,0.0002906,69.9999,98.9738,268.254,91.8286,-4.6197e-05,-6.44e-06,0.0,0 STARLINK-5862,1 55920U 23037G   24016.65070108 -.00000644  00000-0 -46197-4 0  9993,2 55920  69.9999  98.9738 0002906 268.2540  91.8286 14.98329492 46681,6950.194,96.107,574.079,570.04,0.0
55920.0,STARLINK-5862,PAYLOAD,2024-01-17 14:02:53,14.98333011,0.0002624,70.0002,96.6174,266.0066,94.0793,7.5766e-06,-3e-08,0.0,0 STARLINK-5862,1 55920U 23037G   24017.58533702 -.00000003  00000-0  75766-5 0  9993,2 55920  70.0002  96.6174 0002624 266.0066  94.0793 14.98333011 46820,6950.184,96.107,573.872,570.225,0.0
